IRIDIUM 155             
1 43573U 18061E   21289.31734881  .00000105  00000-0  30364-4 0  9991
2 43573  86.3989  49.1710 0002268 106.1771 253.9674 14.34216706168993
IRIDIUM 154             
1 43574U 18061F   21290.27506931  .00000094  00000-0  26655-4 0  9997
2 43574  86.3994  48.8231 0001901  90.1725 269.9689 14.34215292169182
IRIDIUM 163             
1 43575U 18061G   21290.39559202  .00000095  00000-0  26896-4 0  9998
2 43575  86.3992  48.7401 0002455  85.7036 274.4440 14.34216443169173
IRIDIUM 156             
1 43576U 18061H   21289.32369795  .00000109  00000-0  31835-4 0  9991
2 43576  86.3991  49.1931 0002446  96.1327 264.0148 14.34215446169010
IRIDIUM 164             
1 43577U 18061J   21289.30465634  .00000090  00000-0  24973-4 0  9993
2 43577  86.3991  49.2154 0002047  88.3402 271.8028 14.34216218169058
IRIDIUM 159             
1 43578U 18061K   21290.38924589  .00000098  00000-0  27896-4 0  9998
2 43578  86.3992  48.7349 0001987  90.8406 269.3018 14.34216043169174
IRIDIUM 180             
1 43922U 19002A   21290.24920166  .00000102  00000-0  29530-4 0  9992
2 43922  86.3998 345.6902 0002002  69.5291 290.6119 14.34216125144804
IRIDIUM 176             
1 43923U 19002B   21290.20856267  .00000241  00000-0  34386-4 0  9998
2 43923  86.6131 345.7420 0002259  93.7076 266.4400 14.72243466148546
IRIDIUM 168             
1 43924U 19002C   21290.24285531  .00000089  00000-0  24736-4 0  9991
2 43924  86.4000 345.7219 0001953  89.2443 270.8977 14.34214834144745
IRIDIUM 173             
1 43925U 19002D   21290.23016972  .00000090  00000-0  25247-4 0  9992
2 43925  86.3996 345.6855 0002080  88.8963 271.2471 14.34214891144734
IRIDIUM 169             
1 43926U 19002E   21289.30120219  .00000129  00000-0  35690-4 0  9995
2 43926  86.4283  17.6505 0005027 169.7173 190.4129 14.38611576145119
IRIDIUM 172             
1 43927U 19002F   21290.22383975  .00000101  00000-0  29146-4 0  9998
2 43927  86.3998 345.6910 0002050  86.7792 273.3638 14.34216628144732
IRIDIUM 175             
1 43928U 19002G   21290.13439787  .00000227  00000-0  32166-4 0  9997
2 43928  86.6133 345.5962 0002524  83.4676 276.6828 14.72244330148525
IRIDIUM 171             
1 43929U 19002H   21289.57689356  .00000096  00000-0  27265-4 0  9991
2 43929  86.4008 346.0782 0001992  89.3770 270.7654 14.34219108144632
IRIDIUM 170             
1 43930U 19002J   21290.28271744  .00000234  00000-0  33136-4 0  9999
2 43930  86.6131 345.7169 0002223  88.5669 271.5803 14.72244793148565
IRIDIUM 167             
1 43931U 19002K   21290.12869831  .00000095  00000-0  26833-4 0  9994
2 43931  86.3998 345.7381 0001929  75.9813 284.1597 14.34217300144718
